{"type": "FeatureCollection", "features": [{"type": "Feature", "geometry": {"type": "Point", "coordinates": [-76.69, 4.634, 125.2]}, "properties": {"mag": 3.1, "time_h": 1.2, "sintetico": true}}, {"type": "Feature", "geometry": {"type": "Point", "coordinates": [-76.304, 4.836, 115.1]}, "properties": {"mag": 2.8, "time_h": 2.02, "sintetico": true}}, {"type": "Feature", "geometry": {"type": "Point", "coordinates": [-75.894, 4.858, 87.2]}, "properties": {"mag": 3.5, "time_h": 0.91, "sintetico": true}}, {"type": "Feature", "geometry": {"type": "Point", "coordinates": [-76.565, 5.2, 114.8]}, "properties": {"mag": 2.5, "time_h": 1.66, "sintetico": true}}, {"type": "Feature", "geometry": {"type": "Point", "coordinates": [-75.867, 4.987, 112.0]}, "properties": {"mag": 2.7, "time_h": 0.28, "sintetico": true}}, {"type": "Feature", "geometry": {"type": "Point", "coordinates": [-76.088, 4.902, 119.7]}, "properties": {"mag": 2.7, "time_h": 23.66, "sintetico": true}}, {"type": "Feature", "geometry": {"type": "Point", "coordinates": [-76.502, 5.285, 94.6]}, "properties": {"mag": 3.0, "time_h": 0.1, "sintetico": true}}, {"type": "Feature", "geometry": {"type": "Point", "coordinates": [-76.339, 4.764, 127.9]}, "properties": {"mag": 2.7, "time_h": 14.09, "sintetico": true}}, {"type": "Feature", "geometry": {"type": "Point", "coordinates": [-76.327, 4.806, 124.9]}, "properties": {"mag": 4.1, "time_h": 0.92, "sintetico": true}}, {"type": "Feature", "geometry": {"type": "Point", "coordinates": [-76.204, 4.449, 90.1]}, "properties": {"mag": 2.9, "time_h": 0.43, "sintetico": true}}, {"type": "Feature", "geometry": {"type": "Point", "coordinates": [-76.35, 5.295, 99.2]}, "properties": {"mag": 3.7, "time_h": 0.85, "sintetico": true}}, {"type": "Feature", "geometry": {"type": "Point", "coordinates": [-76.437, 5.144, 86.5]}, "properties": {"mag": 3.3, "time_h": 0.45, "sintetico": true}}, {"type": "Feature", "geometry": {"type": "Point", "coordinates": [-76.28, 5.132, 122.4]}, "properties": {"mag": 3.0, "time_h": 1.67, "sintetico": true}}, {"type": "Feature", "geometry": {"type": "Point", "coordinates": [-76.497, 5.07, 126.2]}, "properties": {"mag": 3.0, "time_h": 2.17, "sintetico": true}}, {"type": "Feature", "geometry": {"type": "Point", "coordinates": [-76.576, 4.931, 129.5]}, "properties": {"mag": 2.8, "time_h": 5.71, "sintetico": true}}, {"type": "Feature", "geometry": {"type": "Point", "coordinates": [-76.203, 4.957, 112.5]}, "properties": {"mag": 2.6, "time_h": 0.3, "sintetico": true}}, {"type": "Feature", "geometry": {"type": "Point", "coordinates": [-75.924, 4.84, 115.0]}, "properties": {"mag": 2.6, "time_h": 19.12, "sintetico": true}}, {"type": "Feature", "geometry": {"type": "Point", "coordinates": [-76.648, 4.852, 115.5]}, "properties": {"mag": 2.6, "time_h": 1.27, "sintetico": true}}, {"type": "Feature", "geometry": {"type": "Point", "coordinates": [-76.188, 4.917, 110.7]}, "properties": {"mag": 3.5, "time_h": 0.51, "sintetico": true}}, {"type": "Feature", "geometry": {"type": "Point", "coordinates": [-76.384, 5.281, 127.9]}, "properties": {"mag": 2.8, "time_h": 1.63, "sintetico": true}}, {"type": "Feature", "geometry": {"type": "Point", "coordinates": [-76.482, 5.042, 112.4]}, "properties": {"mag": 2.6, "time_h": 0.1, "sintetico": true}}, {"type": "Feature", "geometry": {"type": "Point", "coordinates": [-75.933, 4.888, 100.1]}, "properties": {"mag": 3.1, "time_h": 0.1, "sintetico": true}}, {"type": "Feature", "geometry": {"type": "Point", "coordinates": [-76.344, 4.758, 108.1]}, "properties": {"mag": 2.7, "time_h": 2.66, "sintetico": true}}, {"type": "Feature", "geometry": {"type": "Point", "coordinates": [-75.74, 4.744, 85.8]}, "properties": {"mag": 2.9, "time_h": 1.36, "sintetico": true}}, {"type": "Feature", "geometry": {"type": "Point", "coordinates": [-76.423, 5.304, 117.6]}, "properties": {"mag": 3.6, "time_h": 7.85, "sintetico": true}}, {"type": "Feature", "geometry": {"type": "Point", "coordinates": [-76.073, 5.03, 116.2]}, "properties": {"mag": 2.6, "time_h": 0.73, "sintetico": true}}, {"type": "Feature", "geometry": {"type": "Point", "coordinates": [-76.257, 4.92, 103.9]}, "properties": {"mag": 2.9, "time_h": 0.82, "sintetico": true}}, {"type": "Feature", "geometry": {"type": "Point", "coordinates": [-76.415, 4.816, 123.3]}, "properties": {"mag": 2.5, "time_h": 2.51, "sintetico": true}}, {"type": "Feature", "geometry": {"type": "Point", "coordinates": [-76.013, 4.626, 119.0]}, "properties": {"mag": 2.7, "time_h": 0.83, "sintetico": true}}, {"type": "Feature", "geometry": {"type": "Point", "coordinates": [-76.235, 4.886, 100.2]}, "properties": {"mag": 2.8, "time_h": 0.1, "sintetico": true}}, {"type": "Feature", "geometry": {"type": "Point", "coordinates": [-76.008, 5.121, 88.5]}, "properties": {"mag": 2.6, "time_h": 0.42, "sintetico": true}}, {"type": "Feature", "geometry": {"type": "Point", "coordinates": [-76.203, 4.805, 91.0]}, "properties": {"mag": 2.5, "time_h": 1.99, "sintetico": true}}, {"type": "Feature", "geometry": {"type": "Point", "coordinates": [-76.515, 4.846, 93.3]}, "properties": {"mag": 2.7, "time_h": 1.05, "sintetico": true}}, {"type": "Feature", "geometry": {"type": "Point", "coordinates": [-76.22, 4.848, 98.7]}, "properties": {"mag": 3.3, "time_h": 3.3, "sintetico": true}}, {"type": "Feature", "geometry": {"type": "Point", "coordinates": [-76.173, 4.93, 105.1]}, "properties": {"mag": 3.1, "time_h": 0.1, "sintetico": true}}, {"type": "Feature", "geometry": {"type": "Point", "coordinates": [-75.901, 4.505, 126.8]}, "properties": {"mag": 2.7, "time_h": 1.69, "sintetico": true}}, {"type": "Feature", "geometry": {"type": "Point", "coordinates": [-76.461, 4.844, 97.5]}, "properties": {"mag": 2.6, "time_h": 0.35, "sintetico": true}}, {"type": "Feature", "geometry": {"type": "Point", "coordinates": [-76.201, 4.689, 125.4]}, "properties": {"mag": 3.5, "time_h": 0.52, "sintetico": true}}, {"type": "Feature", "geometry": {"type": "Point", "coordinates": [-76.706, 5.124, 115.6]}, "properties": {"mag": 3.1, "time_h": 17.95, "sintetico": true}}, {"type": "Feature", "geometry": {"type": "Point", "coordinates": [-75.994, 4.71, 123.4]}, "properties": {"mag": 4.3, "time_h": 3.33, "sintetico": true}}, {"type": "Feature", "geometry": {"type": "Point", "coordinates": [-76.513, 5.047, 103.1]}, "properties": {"mag": 2.7, "time_h": 33.96, "sintetico": true}}, {"type": "Feature", "geometry": {"type": "Point", "coordinates": [-76.731, 5.284, 85.1]}, "properties": {"mag": 3.5, "time_h": 4.94, "sintetico": true}}, {"type": "Feature", "geometry": {"type": "Point", "coordinates": [-76.207, 4.825, 120.4]}, "properties": {"mag": 2.5, "time_h": 8.22, "sintetico": true}}, {"type": "Feature", "geometry": {"type": "Point", "coordinates": [-75.857, 4.753, 96.0]}, "properties": {"mag": 2.5, "time_h": 0.19, "sintetico": true}}, {"type": "Feature", "geometry": {"type": "Point", "coordinates": [-76.646, 4.951, 91.4]}, "properties": {"mag": 2.5, "time_h": 0.43, "sintetico": true}}, {"type": "Feature", "geometry": {"type": "Point", "coordinates": [-76.515, 4.902, 121.0]}, "properties": {"mag": 2.5, "time_h": 0.33, "sintetico": true}}, {"type": "Feature", "geometry": {"type": "Point", "coordinates": [-76.412, 4.655, 115.9]}, "properties": {"mag": 2.7, "time_h": 2.41, "sintetico": true}}, {"type": "Feature", "geometry": {"type": "Point", "coordinates": [-76.528, 5.018, 94.6]}, "properties": {"mag": 2.5, "time_h": 2.66, "sintetico": true}}, {"type": "Feature", "geometry": {"type": "Point", "coordinates": [-76.075, 5.407, 97.0]}, "properties": {"mag": 3.2, "time_h": 0.17, "sintetico": true}}, {"type": "Feature", "geometry": {"type": "Point", "coordinates": [-76.431, 4.838, 127.3]}, "properties": {"mag": 2.5, "time_h": 0.57, "sintetico": true}}, {"type": "Feature", "geometry": {"type": "Point", "coordinates": [-76.405, 4.852, 97.1]}, "properties": {"mag": 2.7, "time_h": 2.15, "sintetico": true}}, {"type": "Feature", "geometry": {"type": "Point", "coordinates": [-76.014, 4.642, 116.6]}, "properties": {"mag": 2.6, "time_h": 0.1, "sintetico": true}}, {"type": "Feature", "geometry": {"type": "Point", "coordinates": [-76.416, 4.983, 90.8]}, "properties": {"mag": 2.9, "time_h": 0.13, "sintetico": true}}, {"type": "Feature", "geometry": {"type": "Point", "coordinates": [-76.059, 4.591, 121.7]}, "properties": {"mag": 2.5, "time_h": 1.6, "sintetico": true}}, {"type": "Feature", "geometry": {"type": "Point", "coordinates": [-76.48, 4.626, 90.3]}, "properties": {"mag": 2.7, "time_h": 5.65, "sintetico": true}}, {"type": "Feature", "geometry": {"type": "Point", "coordinates": [-76.553, 5.223, 108.2]}, "properties": {"mag": 3.8, "time_h": 12.69, "sintetico": true}}, {"type": "Feature", "geometry": {"type": "Point", "coordinates": [-76.74, 4.677, 86.6]}, "properties": {"mag": 3.0, "time_h": 1.2, "sintetico": true}}, {"type": "Feature", "geometry": {"type": "Point", "coordinates": [-75.631, 5.173, 109.8]}, "properties": {"mag": 2.7, "time_h": 2.95, "sintetico": true}}, {"type": "Feature", "geometry": {"type": "Point", "coordinates": [-76.285, 5.284, 123.1]}, "properties": {"mag": 3.2, "time_h": 1.33, "sintetico": true}}, {"type": "Feature", "geometry": {"type": "Point", "coordinates": [-76.116, 4.968, 88.8]}, "properties": {"mag": 2.8, "time_h": 1.78, "sintetico": true}}, {"type": "Feature", "geometry": {"type": "Point", "coordinates": [-76.198, 5.041, 97.3]}, "properties": {"mag": 2.6, "time_h": 0.19, "sintetico": true}}, {"type": "Feature", "geometry": {"type": "Point", "coordinates": [-76.141, 5.391, 119.4]}, "properties": {"mag": 3.3, "time_h": 10.5, "sintetico": true}}, {"type": "Feature", "geometry": {"type": "Point", "coordinates": [-76.174, 4.854, 112.4]}, "properties": {"mag": 2.5, "time_h": 1.63, "sintetico": true}}, {"type": "Feature", "geometry": {"type": "Point", "coordinates": [-75.617, 4.755, 99.1]}, "properties": {"mag": 3.2, "time_h": 1.61, "sintetico": true}}, {"type": "Feature", "geometry": {"type": "Point", "coordinates": [-76.501, 4.565, 113.3]}, "properties": {"mag": 3.4, "time_h": 0.1, "sintetico": true}}, {"type": "Feature", "geometry": {"type": "Point", "coordinates": [-76.656, 4.913, 105.5]}, "properties": {"mag": 2.9, "time_h": 2.2, "sintetico": true}}, {"type": "Feature", "geometry": {"type": "Point", "coordinates": [-76.493, 5.273, 123.8]}, "properties": {"mag": 2.7, "time_h": 2.13, "sintetico": true}}, {"type": "Feature", "geometry": {"type": "Point", "coordinates": [-76.589, 5.143, 98.2]}, "properties": {"mag": 3.4, "time_h": 2.14, "sintetico": true}}, {"type": "Feature", "geometry": {"type": "Point", "coordinates": [-75.965, 4.667, 119.1]}, "properties": {"mag": 2.6, "time_h": 0.91, "sintetico": true}}, {"type": "Feature", "geometry": {"type": "Point", "coordinates": [-75.943, 4.689, 113.6]}, "properties": {"mag": 2.7, "time_h": 3.17, "sintetico": true}}, {"type": "Feature", "geometry": {"type": "Point", "coordinates": [-76.477, 4.777, 118.3]}, "properties": {"mag": 3.1, "time_h": 4.07, "sintetico": true}}, {"type": "Feature", "geometry": {"type": "Point", "coordinates": [-76.606, 4.976, 102.0]}, "properties": {"mag": 2.9, "time_h": 1.08, "sintetico": true}}, {"type": "Feature", "geometry": {"type": "Point", "coordinates": [-76.295, 4.852, 117.6]}, "properties": {"mag": 2.9, "time_h": 0.51, "sintetico": true}}, {"type": "Feature", "geometry": {"type": "Point", "coordinates": [-75.772, 4.957, 116.4]}, "properties": {"mag": 4.8, "time_h": 4.68, "sintetico": true}}, {"type": "Feature", "geometry": {"type": "Point", "coordinates": [-77.035, 4.977, 102.4]}, "properties": {"mag": 2.8, "time_h": 1.13, "sintetico": true}}, {"type": "Feature", "geometry": {"type": "Point", "coordinates": [-76.031, 4.828, 86.2]}, "properties": {"mag": 2.6, "time_h": 1.3, "sintetico": true}}, {"type": "Feature", "geometry": {"type": "Point", "coordinates": [-76.512, 4.893, 128.3]}, "properties": {"mag": 2.8, "time_h": 0.15, "sintetico": true}}, {"type": "Feature", "geometry": {"type": "Point", "coordinates": [-75.877, 4.955, 117.1]}, "properties": {"mag": 3.2, "time_h": 0.34, "sintetico": true}}, {"type": "Feature", "geometry": {"type": "Point", "coordinates": [-76.512, 4.882, 94.2]}, "properties": {"mag": 2.6, "time_h": 6.76, "sintetico": true}}, {"type": "Feature", "geometry": {"type": "Point", "coordinates": [-76.275, 5.029, 117.9]}, "properties": {"mag": 3.2, "time_h": 1.25, "sintetico": true}}, {"type": "Feature", "geometry": {"type": "Point", "coordinates": [-76.641, 5.371, 97.5]}, "properties": {"mag": 3.8, "time_h": 0.1, "sintetico": true}}, {"type": "Feature", "geometry": {"type": "Point", "coordinates": [-76.482, 5.051, 106.1]}, "properties": {"mag": 2.9, "time_h": 3.03, "sintetico": true}}, {"type": "Feature", "geometry": {"type": "Point", "coordinates": [-75.773, 4.917, 123.7]}, "properties": {"mag": 2.5, "time_h": 0.76, "sintetico": true}}, {"type": "Feature", "geometry": {"type": "Point", "coordinates": [-75.943, 4.481, 105.2]}, "properties": {"mag": 2.6, "time_h": 16.06, "sintetico": true}}, {"type": "Feature", "geometry": {"type": "Point", "coordinates": [-76.31, 5.0, 98.0]}, "properties": {"mag": 2.7, "time_h": 1.53, "sintetico": true}}, {"type": "Feature", "geometry": {"type": "Point", "coordinates": [-76.45, 4.416, 98.7]}, "properties": {"mag": 2.8, "time_h": 1.88, "sintetico": true}}, {"type": "Feature", "geometry": {"type": "Point", "coordinates": [-76.757, 4.551, 88.5]}, "properties": {"mag": 2.7, "time_h": 0.65, "sintetico": true}}, {"type": "Feature", "geometry": {"type": "Point", "coordinates": [-76.307, 5.117, 94.9]}, "properties": {"mag": 3.4, "time_h": 0.1, "sintetico": true}}, {"type": "Feature", "geometry": {"type": "Point", "coordinates": [-76.198, 5.08, 97.2]}, "properties": {"mag": 2.9, "time_h": 48.0, "sintetico": true}}, {"type": "Feature", "geometry": {"type": "Point", "coordinates": [-76.214, 4.866, 92.8]}, "properties": {"mag": 2.6, "time_h": 0.72, "sintetico": true}}, {"type": "Feature", "geometry": {"type": "Point", "coordinates": [-76.217, 4.475, 87.8]}, "properties": {"mag": 2.5, "time_h": 6.92, "sintetico": true}}, {"type": "Feature", "geometry": {"type": "Point", "coordinates": [-76.526, 4.81, 106.0]}, "properties": {"mag": 2.6, "time_h": 0.2, "sintetico": true}}, {"type": "Feature", "geometry": {"type": "Point", "coordinates": [-76.209, 4.733, 94.6]}, "properties": {"mag": 2.6, "time_h": 13.24, "sintetico": true}}, {"type": "Feature", "geometry": {"type": "Point", "coordinates": [-76.201, 5.062, 118.2]}, "properties": {"mag": 3.2, "time_h": 0.1, "sintetico": true}}, {"type": "Feature", "geometry": {"type": "Point", "coordinates": [-75.802, 5.467, 126.5]}, "properties": {"mag": 2.7, "time_h": 1.57, "sintetico": true}}, {"type": "Feature", "geometry": {"type": "Point", "coordinates": [-75.629, 4.957, 97.3]}, "properties": {"mag": 3.6, "time_h": 0.12, "sintetico": true}}, {"type": "Feature", "geometry": {"type": "Point", "coordinates": [-76.23, 4.708, 110.8]}, "properties": {"mag": 2.9, "time_h": 0.25, "sintetico": true}}, {"type": "Feature", "geometry": {"type": "Point", "coordinates": [-76.419, 4.61, 107.8]}, "properties": {"mag": 3.0, "time_h": 4.15, "sintetico": true}}, {"type": "Feature", "geometry": {"type": "Point", "coordinates": [-76.208, 4.889, 88.4]}, "properties": {"mag": 3.2, "time_h": 12.15, "sintetico": true}}, {"type": "Feature", "geometry": {"type": "Point", "coordinates": [-76.371, 4.859, 90.6]}, "properties": {"mag": 2.5, "time_h": 1.14, "sintetico": true}}, {"type": "Feature", "geometry": {"type": "Point", "coordinates": [-76.412, 4.615, 124.8]}, "properties": {"mag": 2.9, "time_h": 3.54, "sintetico": true}}, {"type": "Feature", "geometry": {"type": "Point", "coordinates": [-76.207, 4.932, 106.3]}, "properties": {"mag": 2.6, "time_h": 2.2, "sintetico": true}}, {"type": "Feature", "geometry": {"type": "Point", "coordinates": [-76.502, 4.615, 121.2]}, "properties": {"mag": 2.9, "time_h": 0.73, "sintetico": true}}, {"type": "Feature", "geometry": {"type": "Point", "coordinates": [-76.007, 5.181, 88.0]}, "properties": {"mag": 3.2, "time_h": 8.13, "sintetico": true}}, {"type": "Feature", "geometry": {"type": "Point", "coordinates": [-76.22, 5.169, 111.8]}, "properties": {"mag": 2.7, "time_h": 5.44, "sintetico": true}}, {"type": "Feature", "geometry": {"type": "Point", "coordinates": [-76.114, 5.174, 123.9]}, "properties": {"mag": 2.6, "time_h": 0.49, "sintetico": true}}, {"type": "Feature", "geometry": {"type": "Point", "coordinates": [-76.244, 4.784, 124.0]}, "properties": {"mag": 3.1, "time_h": 1.24, "sintetico": true}}, {"type": "Feature", "geometry": {"type": "Point", "coordinates": [-76.407, 5.032, 85.3]}, "properties": {"mag": 2.8, "time_h": 2.41, "sintetico": true}}, {"type": "Feature", "geometry": {"type": "Point", "coordinates": [-76.473, 4.87, 108.5]}, "properties": {"mag": 2.6, "time_h": 2.4, "sintetico": true}}, {"type": "Feature", "geometry": {"type": "Point", "coordinates": [-76.26, 4.806, 101.6]}, "properties": {"mag": 2.7, "time_h": 0.11, "sintetico": true}}, {"type": "Feature", "geometry": {"type": "Point", "coordinates": [-76.354, 4.818, 119.2]}, "properties": {"mag": 2.8, "time_h": 48.0, "sintetico": true}}, {"type": "Feature", "geometry": {"type": "Point", "coordinates": [-76.119, 4.578, 88.3]}, "properties": {"mag": 2.5, "time_h": 0.1, "sintetico": true}}, {"type": "Feature", "geometry": {"type": "Point", "coordinates": [-76.19, 4.542, 96.9]}, "properties": {"mag": 2.9, "time_h": 3.34, "sintetico": true}}, {"type": "Feature", "geometry": {"type": "Point", "coordinates": [-76.598, 5.102, 121.6]}, "properties": {"mag": 3.8, "time_h": 2.87, "sintetico": true}}, {"type": "Feature", "geometry": {"type": "Point", "coordinates": [-76.169, 4.855, 106.1]}, "properties": {"mag": 2.7, "time_h": 0.4, "sintetico": true}}, {"type": "Feature", "geometry": {"type": "Point", "coordinates": [-76.592, 4.957, 105.4]}, "properties": {"mag": 2.5, "time_h": 1.14, "sintetico": true}}, {"type": "Feature", "geometry": {"type": "Point", "coordinates": [-76.374, 5.153, 128.6]}, "properties": {"mag": 3.1, "time_h": 0.55, "sintetico": true}}, {"type": "Feature", "geometry": {"type": "Point", "coordinates": [-76.277, 4.47, 99.4]}, "properties": {"mag": 2.6, "time_h": 0.1, "sintetico": true}}, {"type": "Feature", "geometry": {"type": "Point", "coordinates": [-76.812, 4.707, 86.9]}, "properties": {"mag": 2.5, "time_h": 1.44, "sintetico": true}}, {"type": "Feature", "geometry": {"type": "Point", "coordinates": [-76.162, 4.947, 102.6]}, "properties": {"mag": 2.6, "time_h": 2.58, "sintetico": true}}, {"type": "Feature", "geometry": {"type": "Point", "coordinates": [-76.144, 5.001, 91.9]}, "properties": {"mag": 2.5, "time_h": 2.41, "sintetico": true}}, {"type": "Feature", "geometry": {"type": "Point", "coordinates": [-76.236, 4.809, 88.7]}, "properties": {"mag": 2.7, "time_h": 48.0, "sintetico": true}}, {"type": "Feature", "geometry": {"type": "Point", "coordinates": [-76.316, 5.16, 110.6]}, "properties": {"mag": 2.9, "time_h": 0.23, "sintetico": true}}, {"type": "Feature", "geometry": {"type": "Point", "coordinates": [-76.301, 4.956, 127.9]}, "properties": {"mag": 2.6, "time_h": 0.26, "sintetico": true}}, {"type": "Feature", "geometry": {"type": "Point", "coordinates": [-76.482, 4.6, 111.1]}, "properties": {"mag": 3.1, "time_h": 0.94, "sintetico": true}}, {"type": "Feature", "geometry": {"type": "Point", "coordinates": [-76.27, 4.67, 114.1]}, "properties": {"mag": 2.9, "time_h": 0.29, "sintetico": true}}, {"type": "Feature", "geometry": {"type": "Point", "coordinates": [-76.355, 5.104, 99.6]}, "properties": {"mag": 2.7, "time_h": 0.88, "sintetico": true}}, {"type": "Feature", "geometry": {"type": "Point", "coordinates": [-76.161, 5.019, 110.7]}, "properties": {"mag": 2.8, "time_h": 13.88, "sintetico": true}}, {"type": "Feature", "geometry": {"type": "Point", "coordinates": [-76.55, 4.428, 118.9]}, "properties": {"mag": 3.1, "time_h": 3.09, "sintetico": true}}, {"type": "Feature", "geometry": {"type": "Point", "coordinates": [-76.118, 5.24, 111.5]}, "properties": {"mag": 2.7, "time_h": 0.97, "sintetico": true}}, {"type": "Feature", "geometry": {"type": "Point", "coordinates": [-76.146, 5.053, 121.1]}, "properties": {"mag": 2.8, "time_h": 1.3, "sintetico": true}}, {"type": "Feature", "geometry": {"type": "Point", "coordinates": [-76.231, 5.239, 109.8]}, "properties": {"mag": 2.6, "time_h": 48.0, "sintetico": true}}, {"type": "Feature", "geometry": {"type": "Point", "coordinates": [-76.321, 4.807, 93.9]}, "properties": {"mag": 2.6, "time_h": 0.87, "sintetico": true}}, {"type": "Feature", "geometry": {"type": "Point", "coordinates": [-76.023, 4.829, 111.2]}, "properties": {"mag": 4.5, "time_h": 2.35, "sintetico": true}}, {"type": "Feature", "geometry": {"type": "Point", "coordinates": [-76.688, 4.621, 107.1]}, "properties": {"mag": 2.9, "time_h": 5.69, "sintetico": true}}, {"type": "Feature", "geometry": {"type": "Point", "coordinates": [-76.051, 5.537, 92.5]}, "properties": {"mag": 2.8, "time_h": 2.74, "sintetico": true}}, {"type": "Feature", "geometry": {"type": "Point", "coordinates": [-76.116, 4.859, 112.9]}, "properties": {"mag": 3.7, "time_h": 2.62, "sintetico": true}}, {"type": "Feature", "geometry": {"type": "Point", "coordinates": [-76.104, 5.3, 121.8]}, "properties": {"mag": 2.5, "time_h": 4.44, "sintetico": true}}, {"type": "Feature", "geometry": {"type": "Point", "coordinates": [-76.074, 4.741, 91.1]}, "properties": {"mag": 3.3, "time_h": 0.35, "sintetico": true}}, {"type": "Feature", "geometry": {"type": "Point", "coordinates": [-76.385, 4.944, 109.5]}, "properties": {"mag": 3.5, "time_h": 0.98, "sintetico": true}}], "metadata": {"sintetico": true, "nota": "Cat\u00e1logo ilustrativo Omori+GR (API sin datos)"}}